start=new Date('2022-06-23T00:00:00.000Z').valueOf();
sats=[{"ECCENTRICITY":"0.00012910","CLASSIFICATION_TYPE":"U","FILE":"3500001","INCLINATION":"53.0553","PERIOD":"95.592","OBJECT_NAME":"STARLINK-2636","RCS_SIZE":"LARGE","CENTER_NAME":"EARTH","MEAN_MOTION":"15.06395560","LAUNCH_DATE":"2021-05-04","ARG_OF_PERICENTER":"68.7543","BSTAR":"-0.00001565100000","RA_OF_ASC_NODE":"328.2227","MEAN_ANOMALY":"291.3584","REF_FRAME":"TEME","ELEMENT_SET_NO":"999","MEAN_ELEMENT_THEORY":"SGP4","EPOCH":"2022-06-22T20:34:47.800416","COUNTRY_CODE":"US","PERIAPSIS":"546.333","APOAPSIS":"548.121","MEAN_MOTION_DOT":"-0.00000514","EPHEMERIS_TYPE":"0","GP_ID":"206648135","TIME_SYSTEM":"UTC","TLE_LINE1":"1 48357U 21038E   22173.85749769 -.00000514  00000-0 -15651-4 0  9995","TLE_LINE2":"2 48357  53.0553 328.2227 0001291  68.7543 291.3584 15.06395560 62675","NORAD_CAT_ID":"48357","OBJECT_TYPE":"PAYLOAD","MEAN_MOTION_DDOT":"0.0000000000000","SITE":"AFETR","DECAY_DATE":null,"SEMIMAJOR_AXIS":"6925.362","OBJECT_ID":"2021-038E","REV_AT_EPOCH":"6267"},{"APOAPSIS":"548.509","MEAN_MOTION_DOT":"-0.00001247","MEAN_ELEMENT_THEORY":"SGP4","EPOCH":"2022-06-22T17:14:27.881664","COUNTRY_CODE":"US","PERIAPSIS":"545.992","BSTAR":"-0.00006483100000","RA_OF_ASC_NODE":"328.8039","MEAN_ANOMALY":"306.2559","REF_FRAME":"TEME","ELEMENT_SET_NO":"999","LAUNCH_DATE":"2021-05-04","ARG_OF_PERICENTER":"53.8598","OBJECT_NAME":"STARLINK-2624","RCS_SIZE":"LARGE","CENTER_NAME":"EARTH","MEAN_MOTION":"15.06387944","INCLINATION":"53.0547","PERIOD":"95.593","ECCENTRICITY":"0.00018170","FILE":"3500001","CLASSIFICATION_TYPE":"U","REV_AT_EPOCH":"6264","DECAY_DATE":null,"SEMIMAJOR_AXIS":"6925.386","OBJECT_ID":"2021-038F","SITE":"AFETR","MEAN_MOTION_DDOT":"0.0000000000000","NORAD_CAT_ID":"48358","OBJECT_TYPE":"PAYLOAD","TLE_LINE1":"1 48358U 21038F   22173.71837826 -.00001247  00000-0 -64831-4 0  9991","TLE_LINE2":"2 48358  53.0547 328.8039 0001817  53.8598 306.2559 15.06387944 62647","GP_ID":"206648386","EPHEMERIS_TYPE":"0","TIME_SYSTEM":"UTC"},{"DECAY_DATE":null,"SEMIMAJOR_AXIS":"6925.358","OBJECT_ID":"2021-038G","REV_AT_EPOCH":"6264","SITE":"AFETR","NORAD_CAT_ID":"48359","OBJECT_TYPE":"PAYLOAD","MEAN_MOTION_DDOT":"0.0000000000000","GP_ID":"206649137","EPHEMERIS_TYPE":"0","TIME_SYSTEM":"UTC","TLE_LINE1":"1 48359U 21038G   22173.71469068  .00000299  00000-0  38976-4 0  9996","TLE_LINE2":"2 48359  53.0563 328.8338 0001641  60.9497 299.1657 15.06396765 62640","MEAN_ELEMENT_THEORY":"SGP4","EPOCH":"2022-06-22T17:09:09.274752","PERIAPSIS":"546.087","COUNTRY_CODE":"US","APOAPSIS":"548.360","MEAN_MOTION_DOT":"0.00000299","RA_OF_ASC_NODE":"328.8338","BSTAR":"0.00003897600000","MEAN_ANOMALY":"299.1657","ELEMENT_SET_NO":"999","REF_FRAME":"TEME","RCS_SIZE":"LARGE","OBJECT_NAME":"STARLINK-2628","CENTER_NAME":"EARTH","MEAN_MOTION":"15.06396765","LAUNCH_DATE":"2021-05-04","ARG_OF_PERICENTER":"60.9497","ECCENTRICITY":"0.00016410","FILE":"3500001","CLASSIFICATION_TYPE":"U","INCLINATION":"53.0563","PERIOD":"95.592"},{"MEAN_MOTION_DOT":"0.00000314","APOAPSIS":"548.227","EPOCH":"2022-06-22T17:03:50.878656","PERIAPSIS":"546.263","COUNTRY_CODE":"US","MEAN_ELEMENT_THEORY":"SGP4","MEAN_ANOMALY":"289.7475","ELEMENT_SET_NO":"999","REF_FRAME":"TEME","RA_OF_ASC_NODE":"328.8588","BSTAR":"0.00003998100000","ARG_OF_PERICENTER":"70.3667","LAUNCH_DATE":"2021-05-04","MEAN_MOTION":"15.06389712","CENTER_NAME":"EARTH","OBJECT_NAME":"STARLINK-2622","RCS_SIZE":"LARGE","INCLINATION":"53.0556","PERIOD":"95.593","FILE":"3500001","CLASSIFICATION_TYPE":"U","ECCENTRICITY":"0.00014180","REV_AT_EPOCH":"6264","OBJECT_ID":"2021-038H","DECAY_DATE":null,"SEMIMAJOR_AXIS":"6925.380","SITE":"AFETR","MEAN_MOTION_DDOT":"0.0000000000000","OBJECT_TYPE":"PAYLOAD","NORAD_CAT_ID":"48360","TLE_LINE2":"2 48360  53.0556 328.8588 0001418  70.3667 289.7475 15.06389712 62644","TLE_LINE1":"1 48360U 21038H   22173.71100554  .00000314  00000-0  39981-4 0  9995","TIME_SYSTEM":"UTC","GP_ID":"206647386","EPHEMERIS_TYPE":"0"},{"CENTER_NAME":"EARTH","MEAN_MOTION":"15.06391088","OBJECT_NAME":"STARLINK-2591","RCS_SIZE":"LARGE","ARG_OF_PERICENTER":"76.4128","LAUNCH_DATE":"2021-05-04","CLASSIFICATION_TYPE":"U","FILE":"3500001","ECCENTRICITY":"0.00015100","INCLINATION":"53.0567","PERIOD":"95.593","EPOCH":"2022-06-22T16:58:32.444544","COUNTRY_CODE":"US","PERIAPSIS":"546.195","MEAN_ELEMENT_THEORY":"SGP4","MEAN_MOTION_DOT":"0.00000358","APOAPSIS":"548.287","MEAN_ANOMALY":"283.7029","REF_FRAME":"TEME","ELEMENT_SET_NO":"999","RA_OF_ASC_NODE":"328.8530","BSTAR":"0.00004295200000","OBJECT_TYPE":"PAYLOAD","NORAD_CAT_ID":"48361","MEAN_MOTION_DDOT":"0.0000000000000","TIME_SYSTEM":"UTC","GP_ID":"206647635","EPHEMERIS_TYPE":"0","TLE_LINE2":"2 48361  53.0567 328.8530 0001510  76.4128 283.7029 15.06391088 62644","TLE_LINE1":"1 48361U 21038J   22173.70731996  .00000358  00000-0  42952-4 0  9995","OBJECT_ID":"2021-038J","SEMIMAJOR_AXIS":"6925.376","DECAY_DATE":null,"REV_AT_EPOCH":"6264","SITE":"AFETR"},{"GP_ID":"206648887","EPHEMERIS_TYPE":"0","TIME_SYSTEM":"UTC","TLE_LINE1":"1 48362U 21038K   22173.74049386  .00000299  00000-0  38939-4 0  9999","TLE_LINE2":"2 48362  53.0546 328.7997 0001627  60.8805 299.2347 15.06404337 62654","NORAD_CAT_ID":"48362","OBJECT_TYPE":"PAYLOAD","MEAN_MOTION_DDOT":"0.0000000000000","SITE":"AFETR","DECAY_DATE":null,"SEMIMAJOR_AXIS":"6925.335","OBJECT_ID":"2021-038K","REV_AT_EPOCH":"6265","ECCENTRICITY":"0.00016270","FILE":"3500001","CLASSIFICATION_TYPE":"U","PERIOD":"95.592","INCLINATION":"53.0546","RCS_SIZE":"LARGE","OBJECT_NAME":"STARLINK-2578","MEAN_MOTION":"15.06404337","CENTER_NAME":"EARTH","LAUNCH_DATE":"2021-05-04","ARG_OF_PERICENTER":"60.8805","BSTAR":"0.00003893900000","RA_OF_ASC_NODE":"328.7997","REF_FRAME":"TEME","ELEMENT_SET_NO":"999","MEAN_ANOMALY":"299.2347","MEAN_ELEMENT_THEORY":"SGP4","COUNTRY_CODE":"US","PERIAPSIS":"546.074","EPOCH":"2022-06-22T17:46:18.669504","APOAPSIS":"548.327","MEAN_MOTION_DOT":"0.00000299"},{"MEAN_ELEMENT_THEORY":"SGP4","EPOCH":"2022-06-22T19:35:46.854528","PERIAPSIS":"546.210","COUNTRY_CODE":"US","APOAPSIS":"548.242","MEAN_MOTION_DOT":"-0.00000412","RA_OF_ASC_NODE":"323.3724","BSTAR":"-0.00000875550000","MEAN_ANOMALY":"276.1006","REF_FRAME":"TEME","ELEMENT_SET_NO":"999","OBJECT_NAME":"STARLINK-2626","RCS_SIZE":"LARGE","CENTER_NAME":"EARTH","MEAN_MOTION":"15.06395891","LAUNCH_DATE":"2021-05-04","ARG_OF_PERICENTER":"84.0150","ECCENTRICITY":"0.00014670","FILE":"3500001","CLASSIFICATION_TYPE":"U","INCLINATION":"53.0563","PERIOD":"95.592","SEMIMAJOR_AXIS":"6925.361","DECAY_DATE":null,"OBJECT_ID":"2021-038L","REV_AT_EPOCH":"6273","SITE":"AFETR","NORAD_CAT_ID":"48363","OBJECT_TYPE":"PAYLOAD","MEAN_MOTION_DDOT":"0.0000000000000","GP_ID":"206648637","EPHEMERIS_TYPE":"0","TIME_SYSTEM":"UTC","TLE_LINE1":"1 48363U 21038L   22173.81651452 -.00000412  00000-0 -87555-5 0  9999","TLE_LINE2":"2 48363  53.0563 323.3724 0001467  84.0150 276.1006 15.06395891 62735"},{"SITE":"AFETR","OBJECT_ID":"2021-038M","SEMIMAJOR_AXIS":"6925.355","DECAY_DATE":null,"REV_AT_EPOCH":"6273","TIME_SYSTEM":"UTC","GP_ID":"206647886","EPHEMERIS_TYPE":"0","TLE_LINE2":"2 48364  53.0550 323.5064 0001294  68.2300 291.8826 15.06398046 62739","TLE_LINE1":"1 48364U 21038M   22173.83127891 -.00000343  00000-0 -41531-5 0  9994","OBJECT_TYPE":"PAYLOAD","NORAD_CAT_ID":"48364","MEAN_MOTION_DDOT":"0.0000000000000","ELEMENT_SET_NO":"999","REF_FRAME":"TEME","MEAN_ANOMALY":"291.8826","RA_OF_ASC_NODE":"323.5064","BSTAR":"-0.00000415310000","COUNTRY_CODE":"US","PERIAPSIS":"546.323","EPOCH":"2022-06-22T19:57:02.497824","MEAN_ELEMENT_THEORY":"SGP4","MEAN_MOTION_DOT":"-0.00000343","APOAPSIS":"548.116","FILE":"3500001","CLASSIFICATION_TYPE":"U","ECCENTRICITY":"0.00012940","PERIOD":"95.592","INCLINATION":"53.0550","CENTER_NAME":"EARTH","MEAN_MOTION":"15.06398046","OBJECT_NAME":"STARLINK-2611","RCS_SIZE":"LARGE","ARG_OF_PERICENTER":"68.2300","LAUNCH_DATE":"2021-05-04"},{"EPHEMERIS_TYPE":"0","GP_ID":"206648136","TIME_SYSTEM":"UTC","TLE_LINE1":"1 48365U 21038N   22173.72436173  .00000831  00000-0  74659-4 0  9995","TLE_LINE2":"2 48365  53.0540 323.7953 0001217  89.4109 270.7019 15.06400952 62724","NORAD_CAT_ID":"48365","OBJECT_TYPE":"PAYLOAD","MEAN_MOTION_DDOT":"0.0000000000000","SITE":"AFETR","SEMIMAJOR_AXIS":"6925.346","DECAY_DATE":null,"OBJECT_ID":"2021-038N","REV_AT_EPOCH":"6272","ECCENTRICITY":"0.00012170","CLASSIFICATION_TYPE":"U","FILE":"3500001","PERIOD":"95.592","INCLINATION":"53.0540","OBJECT_NAME":"STARLINK-2608","RCS_SIZE":"LARGE","MEAN_MOTION":"15.06400952","CENTER_NAME":"EARTH","LAUNCH_DATE":"2021-05-04","ARG_OF_PERICENTER":"89.4109","RA_OF_ASC_NODE":"323.7953","BSTAR":"0.00007465900000","ELEMENT_SET_NO":"999","REF_FRAME":"TEME","MEAN_ANOMALY":"270.7019","MEAN_ELEMENT_THEORY":"SGP4","COUNTRY_CODE":"US","PERIAPSIS":"546.368","EPOCH":"2022-06-22T17:23:04.853472","APOAPSIS":"548.053","MEAN_MOTION_DOT":"0.00000831"},{"ARG_OF_PERICENTER":"85.1316","LAUNCH_DATE":"2021-05-04","CENTER_NAME":"EARTH","MEAN_MOTION":"15.06404410","RCS_SIZE":"LARGE","OBJECT_NAME":"STARLINK-2631","PERIOD":"95.592","INCLINATION":"53.0561","FILE":"3500001","CLASSIFICATION_TYPE":"U","ECCENTRICITY":"0.00013280","MEAN_MOTION_DOT":"0.00004115","APOAPSIS":"548.120","COUNTRY_CODE":"US","PERIAPSIS":"546.280","EPOCH":"2022-06-22T20:16:14.827584","MEAN_ELEMENT_THEORY":"SGP4","ELEMENT_SET_NO":"999","REF_FRAME":"TEME","MEAN_ANOMALY":"274.9825","BSTAR":"0.00029494000000","RA_OF_ASC_NODE":"318.2523","MEAN_MOTION_DDOT":"0.0000000000000","OBJECT_TYPE":"PAYLOAD","NORAD_CAT_ID":"48366","TLE_LINE2":"2 48366  53.0561 318.2523 0001328  85.1316 274.9825 15.06404410 62809","TLE_LINE1":"1 48366U 21038P   22173.84461606  .00004115  00000-0  29494-3 0  9993","TIME_SYSTEM":"UTC","EPHEMERIS_TYPE":"0","GP_ID":"206648387","REV_AT_EPOCH":"6280","OBJECT_ID":"2021-038P","DECAY_DATE":null,"SEMIMAJOR_AXIS":"6925.335","SITE":"AFETR"}];
